OBJECT_NAME,OBJECT_ID,EPOCH,MEAN_MOTION,ECCENTRICITY,INCLINATION,RA_OF_ASC_NODE,ARG_OF_PERICENTER,MEAN_ANOMALY,EPHEMERIS_TYPE,CLASSIFICATION_TYPE,NORAD_CAT_ID,ELEMENT_SET_NO,REV_AT_EPOCH,BSTAR,MEAN_MOTION_DOT,MEAN_MOTION_DDOT
STARLINK-11082 [DTC],2024-088D,2026-07-08T22:36:09.506016,15.69721632,.000109,53.1595,88.7377,121.3508,238.7617,0,U,59711,999,12531,-.9625505E-5,-.1755E-4,0
STARLINK-11108 [DTC],2024-088E,2026-07-10T05:02:46.356864,15.69721043,.0000733,53.1573,82.4253,107.1157,252.9941,0,U,59712,999,12551,.16792174E-4,.1448E-4,0
STARLINK-11100 [DTC],2024-088F,2026-07-10T01:52:21.664128,15.69703045,.00010789,53.1594,83.0198,88.0989,272.0153,0,U,59713,999,12549,-.7391283E-5,-.1483E-4,0
STARLINK-11094 [DTC],2024-088G,2026-07-09T02:50:01.272192,15.69720339,.00009132,53.1565,87.6997,109.5637,250.5480,0,U,59714,999,12534,.26589828E-4,.2635E-4,0
STARLINK-11101 [DTC],2024-088H,2026-07-10T03:02:50.805888,15.69701940,.00005988,53.1577,82.6070,115.0365,245.0715,0,U,59715,999,12550,-.855214E-6,-.691E-5,0
STARLINK-11099 [DTC],2024-088J,2026-07-10T01:38:14.301312,15.69696348,.00011334,53.1585,82.9525,93.5189,266.5959,0,U,59716,999,12549,.3832564E-5,-.124E-5,0
STARLINK-11084 [DTC],2024-088K,2026-07-10T02:55:46.879968,15.69706657,.00010504,53.1577,82.5743,97.2902,262.8236,0,U,59717,999,12550,-.650341E-6,-.667E-5,0
STARLINK-11103 [DTC],2024-088L,2026-07-10T02:48:43.138944,15.69704417,.00009997,53.1588,82.5398,136.2944,223.8153,0,U,59718,999,12550,-.6071991E-5,-.1324E-4,0
STARLINK-11096 [DTC],2024-088M,2026-07-08T22:57:20.882880,15.69716057,.00005692,53.1571,88.8276,119.6336,240.4739,0,U,59719,999,12531,.19181964E-4,.1737E-4,0
STARLINK-11095 [DTC],2024-088N,2026-07-10T02:41:39.957792,15.69697528,.00013001,53.1603,82.5079,72.1410,287.9749,0,U,59720,999,12550,-.7398729E-5,-.1485E-4,0
STARLINK-31834,2024-088P,2026-07-10T06:33:26.469792,15.31704272,.00011775,53.1598,290.2857,78.4960,281.6174,0,U,59721,999,12263,.10298654E-4,-.45E-6,0
STARLINK-31843,2024-088Q,2026-07-10T01:58:24.125952,15.31776844,.00013912,53.1599,291.2231,168.3319,191.7715,0,U,59722,999,12242,.18238826E-2,.56801E-3,0
STARLINK-31766,2024-088R,2026-07-10T07:14:53.793600,15.30207034,.00008338,53.1605,290.4646,80.0858,280.0237,0,U,59723,999,12245,.63192717E-4,.1513E-4,0
STARLINK-31836,2024-088S,2026-07-09T16:00:01.999584,15.31684290,.00007196,53.1571,292.6551,77.2864,48.2368,0,U,59724,999,588,.10669047E-2,.32872E-3,0
STARLINK-31820,2024-088T,2026-07-10T05:46:23.595168,15.31705007,.00010549,53.1579,290.0794,132.7178,227.3912,0,U,59725,999,12245,-.12863315E-4,-.764E-5,0
STARLINK-31642,2024-088U,2026-07-09T12:39:32.612256,15.31713141,.00007218,53.1571,293.4514,86.7210,273.3874,0,U,59726,999,12234,.979266E-5,-.61E-6,0
STARLINK-31827,2024-088V,2026-07-10T06:26:43.157184,15.31711250,.00017308,53.1584,290.2564,51.5582,308.5575,0,U,59727,999,12257,.80018278E-4,.2119E-4,0
STARLINK-31472,2024-090A,2026-07-09T06:20:03.445728,15.27732034,.00018042,43.0037,216.8822,294.7211,65.3452,0,U,59730,999,12203,.55292146E-4,.1266E-4,0
STARLINK-31817,2024-090B,2026-07-10T00:44:51.130176,15.27583554,.00012133,43.0017,212.3222,288.0788,71.9932,0,U,59731,999,12215,.48113828E-4,.1062E-4,0
STARLINK-31833,2024-090D,2026-07-10T07:47:43.097568,15.27586868,.00014409,43.0004,211.0823,269.2170,90.8517,0,U,59733,999,12219,.29016012E-4,.537E-5,0
STARLINK-31849,2024-090E,2026-07-10T01:15:48.158208,15.27616551,.00017989,43.0029,205.5654,282.7864,77.2787,0,U,59734,999,12223,.19532464E-3,.5122E-4,0
STARLINK-31661,2024-090F,2026-07-10T00:59:11.722560,15.27586420,.00016308,43.0014,205.4749,277.1866,82.8800,0,U,59735,999,12223,.76204648E-4,.1836E-4,0
STARLINK-31707,2024-090G,2026-07-10T02:39:21.414528,15.27589205,.00014169,43.0034,212.0614,276.0990,83.9700,0,U,59736,999,12216,.43590868E-4,.938E-5,0
STARLINK-31821,2024-090H,2026-07-10T01:21:50.914656,15.27585789,.00013976,43.0024,212.5166,268.7015,91.3677,0,U,59737,999,12215,.56176376E-4,.1284E-4,0
STARLINK-31819,2024-090J,2026-07-10T01:14:27.351744,15.27586620,.00018585,43.0045,212.4754,290.4251,69.6401,0,U,59738,999,12215,.75905401E-4,.1827E-4,0
STARLINK-31726,2024-090K,2026-07-10T02:13:27.203808,15.27586158,.00014272,42.9993,211.9199,289.1652,70.9045,0,U,59739,999,12216,.7622416E-4,.1836E-4,0
STARLINK-31759,2024-090L,2026-07-09T13:14:31.244928,15.27585263,.00011336,42.9994,215.6001,279.7699,80.3024,0,U,59740,999,12207,.16554371E-3,.4297E-4,0
STARLINK-31818,2024-090M,2026-07-10T07:53:16.747584,15.27590037,.00013938,43.0014,211.1104,275.6573,84.4119,0,U,59741,999,12219,.91604155E-4,.226E-4,0
STARLINK-31816,2024-090N,2026-07-10T01:56:59.580096,15.27576508,.00012407,43.0001,212.6717,277.4840,82.5871,0,U,59742,999,12213,.4209878E-5,-.146E-5,0
STARLINK-31809,2024-090P,2026-07-10T01:04:44.688288,15.27588400,.00016862,43.0014,205.4999,265.2385,94.8274,0,U,59743,999,12223,.54920186E-4,.125E-4,0
