STARLINK-11082 [DTC]    
1 59711U 24088D   26189.94177669 -.00001755  00000+0 -96255-5 0  9991
2 59711  53.1595  88.7377 0001090 121.3508 238.7617 15.69721632125311
STARLINK-11108 [DTC]    
1 59712U 24088E   26191.21025876  .00001448  00000+0  16792-4 0  9991
2 59712  53.1573  82.4253 0000733 107.1157 252.9941 15.69721043125513
STARLINK-11100 [DTC]    
1 59713U 24088F   26191.07802852 -.00001483  00000+0 -73913-5 0  9993
2 59713  53.1594  83.0198 0001078  88.0989 272.0153 15.69703045125492
STARLINK-11094 [DTC]    
1 59714U 24088G   26190.11807028  .00002635  00000+0  26590-4 0  9994
2 59714  53.1565  87.6997 0000913 109.5637 250.5480 15.69720339125347
STARLINK-11101 [DTC]    
1 59715U 24088H   26191.12697692 -.00000691  00000+0 -85521-6 0  9994
2 59715  53.1577  82.6070 0000598 115.0365 245.0715 15.69701940125502
STARLINK-11099 [DTC]    
1 59716U 24088J   26191.06822108 -.00000124  00000+0  38326-5 0  9990
2 59716  53.1585  82.9525 0001133  93.5189 266.5959 15.69696348125491
STARLINK-11084 [DTC]    
1 59717U 24088K   26191.12207037 -.00000667  00000+0 -65034-6 0  9996
2 59717  53.1577  82.5743 0001050  97.2902 262.8236 15.69706657125507
STARLINK-11103 [DTC]    
1 59718U 24088L   26191.11716596 -.00001324  00000+0 -60720-5 0  9998
2 59718  53.1588  82.5398 0000999 136.2944 223.8153 15.69704417125504
STARLINK-11096 [DTC]    
1 59719U 24088M   26189.95649170  .00001737  00000+0  19182-4 0  9992
2 59719  53.1571  88.8276 0000569 119.6336 240.4739 15.69716057125311
STARLINK-11095 [DTC]    
1 59720U 24088N   26191.11226803 -.00001485  00000+0 -73987-5 0  9995
2 59720  53.1603  82.5079 0001300  72.1410 287.9749 15.69697528125500
STARLINK-31834          
1 59721U 24088P   26191.27322303 -.00000045  00000+0  10299-4 0  9991
2 59721  53.1598 290.2857 0001177  78.4960 281.6174 15.31704272122635
STARLINK-31843          
1 59722U 24088Q   26191.08222368  .00056801  00000+0  18239-2 0  9991
2 59722  53.1599 291.2231 0001391 168.3319 191.7715 15.31776844122422
STARLINK-31766          
1 59723U 24088R   26191.30201150  .00001513  00000+0  63193-4 0  9994
2 59723  53.1605 290.4646 0000833  80.0858 280.0237 15.30207034122453
STARLINK-31836          
1 59724U 24088S   26190.66668981  .00032872  00000+0  10669-2 0  9992
2 59724  53.1571 292.6551 0000719  77.2864  48.2368 15.31684290  5883
STARLINK-31820          
1 59725U 24088T   26191.24055087 -.00000764  00000+0 -12863-4 0  9992
2 59725  53.1579 290.0794 0001054 132.7178 227.3912 15.31705007122459
STARLINK-31642          
1 59726U 24088U   26190.52746079 -.00000061  00000+0  97927-5 0  9995
2 59726  53.1571 293.4514 0000721  86.7210 273.3874 15.31713141122348
STARLINK-31827          
1 59727U 24088V   26191.26855506  .00002119  00000+0  80018-4 0  9991
2 59727  53.1584 290.2564 0001730  51.5582 308.5575 15.31711250122579
STARLINK-31472          
1 59730U 24090A   26190.26392877  .00001266  00000+0  55292-4 0  9992
2 59730  43.0037 216.8822 0001804 294.7211  65.3452 15.27732034122038
STARLINK-31817          
1 59731U 24090B   26191.03114734  .00001062  00000+0  48114-4 0  9992
2 59731  43.0017 212.3222 0001213 288.0788  71.9932 15.27583554122151
STARLINK-31833          
1 59733U 24090D   26191.32480437  .00000537  00000+0  29016-4 0  9998
2 59733  43.0004 211.0823 0001440 269.2170  90.8517 15.27586868122194
STARLINK-31849          
1 59734U 24090E   26191.05264072  .00005122  00000+0  19532-3 0  9990
2 59734  43.0029 205.5654 0001798 282.7864  77.2787 15.27616551122234
STARLINK-31661          
1 59735U 24090F   26191.04110790  .00001836  00000+0  76205-4 0  9996
2 59735  43.0014 205.4749 0001630 277.1866  82.8800 15.27586420122237
STARLINK-31707          
1 59736U 24090G   26191.11066452  .00000938  00000+0  43591-4 0  9994
2 59736  43.0034 212.0614 0001416 276.0990  83.9700 15.27589205122160
STARLINK-31821          
1 59737U 24090H   26191.05683929  .00001284  00000+0  56176-4 0  9990
2 59737  43.0024 212.5166 0001397 268.7015  91.3677 15.27585789122159
STARLINK-31819          
1 59738U 24090J   26191.05170546  .00001827  00000+0  75905-4 0  9991
2 59738  43.0045 212.4754 0001858 290.4251  69.6401 15.27586620122159
STARLINK-31726          
1 59739U 24090K   26191.09267597  .00001836  00000+0  76224-4 0  9994
2 59739  42.9993 211.9199 0001427 289.1652  70.9045 15.27586158122165
STARLINK-31759          
1 59740U 24090L   26190.55175052  .00004297  00000+0  16554-3 0  9993
2 59740  42.9994 215.6001 0001133 279.7699  80.3024 15.27585263122079
STARLINK-31818          
1 59741U 24090M   26191.32866606  .00002260  00000+0  91604-4 0  9990
2 59741  43.0014 211.1104 0001393 275.6573  84.4119 15.27590037122192
STARLINK-31816          
1 59742U 24090N   26191.08124514 -.00000146  00000+0  42099-5 0  9996
2 59742  43.0001 212.6717 0001240 277.4840  82.5871 15.27576508122138
STARLINK-31809          
1 59743U 24090P   26191.04496167  .00001250  00000+0  54920-4 0  9990
2 59743  43.0014 205.4999 0001686 265.2385  94.8274 15.27588400122236
